STRATOSAT-TK1-D (RS52SD)
1 57326U 23091BA  25177.07974692  .00016906  00000-0  52853-3 0  9992
2 57326  97.5541 238.8253 0008705 249.8903 110.1402 15.33193118108128
STRATOSAT-TK1-V (RS52SV)
1 57327U 23091BB  25176.98474385  .00205419  00000-0  14531-2 0  9995
2 57327  97.5447 246.9622 0007830 217.3625 142.7095 15.73354192108644
VERONIKA
1 58261U 23174F   25176.93678004  .00148546  00000-0  98702-3 0  9994
2 58261  97.4109 264.1505 0002953 273.3897  86.7030 15.75010517 91258
ENSO
1 58470U 23185J   25177.09330653  .00045503  00000-0  61900-3 0  9990
2 58470  97.3734 252.7604 0005636  32.2844 327.8755 15.57433115 87601
METEOR M2-4
1 59051U 24039A   25177.10497016 -.00000009  00000-0  15370-4 0  9998
2 59051  98.6501 136.9360 0008074 116.3015 243.8993 14.22369477 68642
ZORKIY-2M 2
1 59064U 24039P   25177.09210834  .00036312  00000-0  48951-3 0  9996
2 59064  97.4260 150.4026 0006241 317.8315  42.2460 15.57719328 74189
PARS-1
1 59065U 24039Q   25177.11344395  .00006306  00000-0  17760-3 0  9994
2 59065  97.4401 145.3307 0010080 327.2734  32.7885 15.36772449 73801
SITRO-AIS-25
1 59066U 24039R   25177.05480629  .00003730  00000-0  31471-3 0  9992
2 59066  95.3754 351.2183 0157080 129.2921 232.2355 14.89276554 71642
SITRO-AIS-26
1 59067U 24039S   25177.21672583  .00004136  00000-0  34988-3 0  9990
2 59067  95.3753 351.2859 0157287 128.9968 232.5385 14.89128786 71669
SITRO-AIS-27
1 59068U 24039T   25177.20811913  .00003901  00000-0  32798-3 0  9998
2 59068  95.3755 351.4099 0156552 128.3464 233.1949 14.89454537 71679
SITRO-AIS-28
1 59071U 24039U   25177.06035607  .00003583  00000-0  30122-3 0  9999
2 59071  95.3757 351.3366 0156405 128.7594 232.7726 14.89495222 71658
SONATE-2
1 59112U 24043Q   25177.10691301  .00012220  00000-0  34764-3 0  9998
2 59112  97.5157 308.6225 0011791  60.8100 299.4322 15.36218271 72875
HORS-1
1 57188U 23091Y   25177.11452288  .00005515  00000-0  26552-3 0  9996
2 57188  97.5583 234.6705 0009029 255.8561 104.1670 15.19146254110129
HORS-2
1 57196U 23091AG  25177.06032931  .00006781  00000-0  30219-3 0  9999
2 57196  97.5598 235.9424 0008632 253.0196 107.0094 15.21730707110193
ZORKIY-2M 6
1 59774U 24092B   25177.12364712  .00005338  00000-0  24974-3 0  9995
2 59774  97.6163 294.7986 0010154 354.5912   5.5211 15.20151884 61298
ZORKIY-2M 4
1 59775U 24092C   25177.17174482  .00005217  00000-0  24097-3 0  9996
2 59775  97.6294 295.7304 0010260 357.7931   2.3257 15.20602712 61323
SITRO-AIS-53
1 59776U 24092D   25177.05105141  .00007781  00000-0  33606-3 0  9994
2 59776  97.6243 295.4821 0008629 330.9398  29.1356 15.22752807 61314
SITRO-AIS-54
1 59777U 24092E   25176.59044989  .00006748  00000-0  29227-3 0  9991
2 59777  97.6240 295.0097 0008897 332.9747  27.1025 15.22706843 61242
SITRO-AIS-56
1 59778U 24092F   25177.07898322  .00008652  00000-0  37024-3 0  9994
2 59778  97.6236 295.5693 0009070 331.6730  28.4012 15.23028757 61328
RASSVET 1-4
1 59779U 24092G   25177.09096633  .00000112  00000-0  58526-4 0  9996
2 59779  98.6383 292.2710 0012455 171.8613 188.2775 14.31621484 57940
RASSVET 1-5
1 59780U 24092H   25177.09063727  .00000125  00000-0  63735-4 0  9998
2 59780  98.6382 292.2675 0012577 171.8137 188.3254 14.31580538 57944
RASSVET 1-6
1 59781U 24092J   25177.22918323  .00000104  00000-0  55812-4 0  9999
2 59781  98.6383 292.4092 0012449 171.6727 188.4665 14.31620916 57966
SITRO-AIS-55
1 59809U 24092K   25176.28641728  .00006985  00000-0  30326-3 0  9992
2 59809  97.6233 294.6160 0009184 334.1360  25.9415 15.22609534 60697
MESAT-1
1 60209U 24125G   25177.05248508  .00013569  00000-0  37924-3 0  9997
2 60209  97.2770  28.4903 0020181  80.2945 280.0578 15.36597715 54487
ISTSAT-1
1 60238U 24128D   25177.04409257  .00004617  00000-0  32524-3 0  9996
2 60238  61.9910  19.4647 0051866  61.0182 299.6095 15.05441910 52739
IONOSFERA-M 01
1 61735U 24199A   25177.05330158  .00000031  00000-0  33728-4 0  9995
2 61735  98.7674  47.9921 0002194  86.9602 273.1827 14.22672692 77065
IONOSFERA-M 02
1 61736U 24199B   25177.08814454  .00000031  00000-0  33521-4 0  9996
2 61736  98.7672  47.9414 0000345  60.4405 299.6807 14.22674008 80197
SITRO-AIS-16
1 61737U 24199C   25177.19732794  .00001684  00000-0  15877-3 0  9993
2 61737  97.3568  33.6717 0006921 175.1047 185.0244 14.95006128 78582
SITRO-AIS-15
1 61738U 24199D   25177.05441351  .00001389  00000-0  13166-3 0  9996
2 61738  97.3570  33.5582 0006607 175.4903 184.6379 14.95047532 78566
SITRO-AIS-21
1 61739U 24199E   25177.09987726  .00001543  00000-0  15177-3 0  9998
2 61739  97.3570  33.0582 0013113 173.7120 186.4268 14.93392820 78573
SITRO-AIS-22
1 61740U 24199F   25177.09341867  .00001769  00000-0  17291-3 0  9999
2 61740  97.3572  33.0738 0013176 174.8793 185.2565 14.93467474 78729
SITRO-AIS-24
1 61741U 24199G   25177.09716720  .00001614  00000-0  15853-3 0  9995
2 61741  97.3573  33.0723 0013087 176.3892 183.7425 14.93392129 78691
SITRO-AIS-23
1 61742U 24199H   25177.08733653  .00001876  00000-0  18290-3 0  9997
2 61742  97.3573  33.0823 0012986 175.8009 184.3323 14.93494421 78573
SITRO-AIS-13
1 61743U 24199J   25177.09774080  .00001827  00000-0  17081-3 0  9991
2 61743  97.3571  33.6495 0006384 174.8897 185.2391 14.95243361 78732
CSTP-2.11
1 61744U 24199K   25177.11084062  .00010721  00000-0  32913-3 0  9993
2 61744  97.3545  45.8529 0013782 119.3588 240.9033 15.33818185 79499
POLYTECH UNIVERSE-5 (RS70S)
1 61745U 24199L   25177.05530526  .00013070  00000-0  38008-3 0  9999
2 61745  97.3519  45.9928 0011320 124.8829 235.3480 15.35511856 82642
COLIBRI-S (RS67S)
1 61746U 24199M   25177.05607752  .00009607  00000-0  30361-3 0  9991
2 61746  97.3547  45.6190 0013752 120.9767 239.2829 15.32926620 82614
POLYTECH UNIVERSE-4 (RS71S)
1 61747U 24199N   25177.09597195  .00008530  00000-0  27491-3 0  9999
2 61747  97.3546  45.5640 0013893 119.5652 240.6977 15.32333852 82615
SITRO-AIS-44
1 61748U 24199P   25177.11236778  .00014475  00000-0  40841-3 0  9999
2 61748  97.3510  46.2088 0011014 124.6812 235.5472 15.36437551 82662
VIZARD-ION (RS68S)
1 61749U 24199Q   25177.05546662  .00011923  00000-0  35745-3 0  9991
2 61749  97.3548  45.9271 0013280 119.1768 241.0806 15.34548370 82630
MTUSI-1
1 61750U 24199R   25177.06699631  .00012167  00000-0  36736-3 0  9991
2 61750  97.3517  45.6758 0013120 127.9827 232.2604 15.34322042 82624
VLADIVOSTOK-1
1 61751U 24199S   25177.08005782  .00004927  00000-0  17593-3 0  9997
2 61751  97.3531  44.9203 0012727 134.6127 225.6153 15.29244204 82585
SITRO-AIS-14
1 61752U 24199T   25177.11387602  .00001324  00000-0  12554-3 0  9996
2 61752  97.3570  33.6300 0006451 175.5029 184.6251 14.95096880 81875
HORS-3 (RS81S)
1 61753U 24199U   25177.09809817  .00012042  00000-0  36314-3 0  9990
2 61753  97.3513  45.7761 0012023 127.0048 233.2297 15.34376088 82634
HORS-4 (RS82S)
1 61754U 24199V   25177.09282856  .00012538  00000-0  36896-3 0  9994
2 61754  97.3510  45.9261 0012156 126.7756 233.4605 15.35137602 82642
SITRO-AIS-43
1 61755U 24199W   25177.10406363  .00014475  00000-0  40741-3 0  9994
2 61755  97.3510  46.2194 0010993 124.0893 236.1396 15.36513652 82665
SITRO-AIS-42
1 61756U 24199X   25177.10046627  .00014429  00000-0  40558-3 0  9993
2 61756  97.3512  46.2259 0011045 123.8119 236.4178 15.36555100 82662
HORIZON (RS59S)
1 61757U 24199Y   25177.11039961  .00018820  00000-0  49461-3 0  9999
2 61757  97.3532  46.5875 0012503 115.8417 244.4119 15.38565918 82680
SITRO-AIS-20
1 61758U 24199Z   25177.08666503  .00002207  00000-0  20499-3 0  9996
2 61758  97.3569  33.6568 0006225 176.2420 183.8849 14.95316604 81870
SITRO-AIS-19
1 61759U 24199AA  25177.08561777  .00002183  00000-0  20286-3 0  9991
2 61759  97.3569  33.6595 0006116 177.7443 182.3808 14.95299009 81879
SITRO-AIS-41
1 61760U 24199AB  25177.06077303  .00014156  00000-0  40199-3 0  9996
2 61760  97.3516  46.1353 0011083 123.9633 236.2666 15.36239862 82652
2024-199AC
1 61761U 24199AC  25177.08109009  .00011784  00000-0  34899-3 0  9992
2 61761  97.3510  45.9472 0010872 124.9587 235.2678 15.34968539 82649
ARCTICSAT-1 (RS74S)
1 61762U 24199AD  25177.09988074  .00017521  00000-0  46417-3 0  9995
2 61762  97.3531  46.5968 0012630 115.1435 245.1122 15.38332569 82688
SIT-HSE
1 61763U 24199AE  25177.18568772  .00016362  00000-0  47186-3 0  9991
2 61763  97.3518  46.2700 0010331 127.0624 233.1566 15.35732264 82674
SIT-2086
1 61764U 24199AF  25177.09524942  .00008224  00000-0  23468-3 0  9998
2 61764  97.3515  46.2374 0010147 120.7869 239.4375 15.36247672 79505
MORDOVIA-IOT (RS50S)
1 61765U 24199AG  25177.05646619  .00027562  00000-0  63098-3 0  9990
2 61765  97.3509  47.2401 0011763 111.9424 248.3075 15.42689559 79579
RUZAEVKA-390 (RS44S)
1 61766U 24199AH  25177.08474329  .00022712  00000-0  54602-3 0  9994
2 61766  97.3510  47.0473 0011852 111.8192 248.4317 15.41254870 79561
2024-199AJ (? AHMAT-2)
1 61767U 24199AJ  25177.11060247  .00033711  00000-0  71883-3 0  9990
2 61767  97.3498  47.5923 0011229 109.4345 250.8118 15.44767604 79601
HOD-HOD
1 61768U 24199AK  25177.05762727  .00009912  00000-0  30380-3 0  9999
2 61768  97.3523  45.8542 0009336 129.8506 230.3560 15.33943237 79486
KOSAR
1 61769U 24199AL  25177.05334312  .00011145  00000-0  33249-3 0  9993
2 61769  97.3519  45.9965 0009219 129.8751 230.3305 15.34766506 79495
SITRO-AIS-48
1 61771U 24199AN  25177.11143979  .00012677  00000-0  38593-3 0  9998
2 61771  97.3490  45.5336 0013889 136.2865 223.9480 15.34039430 79479
HYPERVIEW-1G (RS66S)
1 61772U 24199AP  25177.09528732  .00015356  00000-0  43792-3 0  9994
2 61772  97.3511  45.9235 0015079 129.5578 230.7001 15.36035776 79493
SITRO-AIS-47
1 61773U 24199AQ  25177.10208621  .00012508  00000-0  37891-3 0  9998
2 61773  97.3493  45.5507 0013912 137.1398 223.0932 15.34198271 79474
SITRO-AIS-46
1 61774U 24199AR  25177.07629877  .00012694  00000-0  38018-3 0  9993
2 61774  97.3488  45.5748 0013999 137.3354 222.8979 15.34554758 79479
